ATLAS CENTAUR 2         
1 00694U 63047A   26199.65955291  .00000428  00000+0  38905-4 0  9990
2 00694  30.3518 183.3799 0545667 155.0756 207.7257 14.12567324150150
THOR AGENA D R/B        
1 00733U 64002A   26199.90265095  .00000067  00000+0  41427-4 0  9992
2 00733  99.1155 220.3453 0031940 235.4467 124.3701 14.34077070257108
SL-3 R/B                
1 00877U 64053B   26199.73977493  .00000021  00000+0  28507-4 0  9994
2 00877  65.0780 306.9961 0080134 251.2001 108.0395 14.61440630285944
SL-8 R/B                
1 02802U 67045B   26199.91753403  .00000127  00000+0  42650-4 0  9993
2 02802  74.0111 102.9971 0063071  78.6193 282.2041 14.45696557107984
SL-8 R/B                
1 03230U 68040B   26199.91431745  .00001466  00000+0  10872-3 0  9994
2 03230  74.0291  45.3961 0024872 192.6232 167.4337 15.03950304109730
OAO 2                   
1 03597U 68110A   26199.58077139  .00000067  00000+0  23016-4 0  9995
2 03597  34.9928 254.3908 0005317 173.1576 186.9188 14.47362406 38074
ISIS 1                  
1 03669U 69009A   26199.79213634  .00000071  00000+0  42134-4 0  9995
2 03669  88.4452 140.9297 1707195 184.3940 174.0245 11.30436843363343
SERT 2                  
1 04327U 70009A   26199.84574441 -.00000011  00000+0  41343-4 0  9997
2 04327  99.2839 135.8602 0004704 179.3554 247.1062 13.58741131797708
SL-3 R/B                
1 05118U 71028B   26199.70615633  .00034625  00000+0  25513-3 0  9999
2 05118  81.2297 248.8094 0014734 169.9764 190.1793 15.72707807  9195
ASTEX 1                 
1 05560U 71089A   26199.93600683  .00000240  00000+0  61086-4 0  9993
2 05560  92.7008 194.0813 0015838  10.2933 349.8594 14.50873127881336
SL-8 R/B                
1 05730U 71119B   26199.70521666  .00003951  00000+0  20342-3 0  9995
2 05730  73.8874 290.3718 0542596 229.9920 125.2416 14.39761972674331
OAO 3 (COPERNICUS)      
1 06153U 72065A   26199.91798633  .00000103  00000+0  25491-4 0  9996
2 06153  35.0056 269.6053 0006271 159.0245   7.4298 14.60075813865384
ATLAS CENTAUR R/B       
1 06155U 72065B   26199.48798026  .00000311  00000+0  45590-4 0  9999
2 06155  35.0008 259.0355 0033268  30.5275 329.7355 14.77967946860624
SL-8 R/B                
1 08459U 75112B   26199.89782470  .00000124  00000+0  49440-4 0  9995
2 08459  74.0609 137.5371 0016056 199.5173 160.5369 14.38259244650737
SL-3 R/B                
1 10114U 77057B   26199.88756209  .00005890  00000+0  11273-3 0  9993
2 10114  97.5859  17.9803 0007587 157.4758 202.6827 15.48456724688616
SEASAT 1                
1 10967U 78064A   26199.50339723 -.00000018  00000+0  33414-4 0  9995
2 10967 108.0181  40.0300 0001057 260.6969  99.4057 14.46261012525421
SL-14 R/B               
1 11267U 79011B   26199.82999170  .00000262  00000+0  23308-4 0  9996
2 11267  82.5259 332.1237 0015439 344.8873  15.1884 14.92039793548337
SL-8 R/B                
1 11574U 79089B   26199.20729584  .00000080  00000+0  32077-4 0  9995
2 11574  74.0669 209.4327 0016133 343.6834  16.3801 14.42415417454920
SL-14 R/B               
1 11672U 80005B   26199.39267705  .00000276  00000+0  25200-4 0  9993
2 11672  82.5139 183.2384 0017343  87.8448 272.4757 14.91051581495965
SL-8 R/B                
1 12139U 81003B   26199.33417417  .00014356  00000+0  33980-3 0  9999
2 12139  82.9372 168.8150 0249895  82.7570 280.1995 15.15148618334435
SL-3 R/B                
1 12465U 81046B   26199.93410731  .00006824  00000+0  14430-3 0  9996
2 12465  81.2315 131.8078 0015653 282.8689  77.0806 15.44831601458672
SL-3 R/B                
1 12904U 81103B   26199.93109804  .00002058  00000+0  87553-4 0  9996
2 12904  81.1566  59.3306 0012279 198.7682 161.3099 15.22503905993195
SL-3 R/B                
1 13068U 82013B   26199.89271417  .00002065  00000+0  86125-4 0  9996
2 13068  81.1743   6.8331 0022932  96.6381 263.7463 15.22976296424310
SL-3 R/B                
1 13154U 82039B   26199.89516771  .00001436  00000+0  84473-4 0  9990
2 13154  81.1513  64.4575 0028695 245.8206 114.0020 15.10709409401440
SL-3 R/B                
1 13403U 82079B   26199.92010053  .00002576  00000+0  98179-4 0  9991
2 13403  81.1447  37.9414 0024917  81.5736 278.8321 15.26033685397705
SL-14 R/B               
1 13553U 82092B   26199.89714230  .00000202  00000+0  19909-4 0  9994
2 13553  82.5671  18.6256 0019218 222.6544 257.5156 14.86766255348424
SL-3 R/B                
1 13819U 83010B   26199.05391483  .00008015  00000+0  14222-3 0  9991
2 13819  81.0997 201.9256 0013068 312.7112  47.3033 15.49957030378111
SL-3 R/B                
1 14208U 83075B   26199.89191246  .00005905  00000+0  14409-3 0  9994
2 14208  97.6110 209.7045 0022365 117.4236 242.9288 15.41023690350341
COSMOS 1536             
1 14699U 84013A   26199.85029828  .00003850  00000+0  15092-3 0  9999
2 14699  82.5464 337.2997 0014268 175.4684 184.6686 15.25370750292609
SL-14 R/B               
1 14820U 84027B   26199.86152345  .00000209  00000+0  21104-4 0  9999
2 14820  82.5429 122.0161 0016336 258.1957 101.7427 14.86080403267119
